{
  "type": "FeatureCollection",
  "features": [
    {
      "type": "Feature",
      "properties": {
        "norad_id": 24946,
        "name": "IRIDIUM 33",
        "group": "iridium-33-debris",
        "lat": 60.95712883588251,
        "lon": 69.43910693920148,
        "alt_km": 769.9271737228783,
        "timestamp": "2025-12-25T09:48:52.674263+00:00",
        "meta_object_name": "IRIDIUM 33",
        "meta_object_id": "1997-051C",
        "meta_epoch": "2025-12-24T16:47:43.898496",
        "meta_mean_motion": 14.3504533,
        "meta_eccentricity": 0.00084437,
        "meta_inclination": 86.3857,
        "meta_ra_of_asc_node": 63.2009,
        "meta_arg_of_pericenter": 161.6757,
        "meta_mean_anomaly": 198.4746,
        "meta_ephemeris_type": 0,
        "meta_classification_type": "U",
        "meta_norad_cat_id": 24946,
        "meta_element_set_no": 999,
        "meta_rev_at_epoch": 48006,
        "meta_bstar": 0.00011017543,
        "meta_mean_motion_dot": 3.34e-06,
        "meta_mean_motion_ddot": 0,
        "tle_line1": "1 24946U 97051C   25358.69981364  .00000334  00000+0  11018-3 0  9999",
        "tle_line2": "2 24946  86.3857  63.2009 0008443 161.6757 198.4746 14.35045330480061"
      },
      "geometry": {
        "type": "Point",
        "coordinates": [
          69.43910693920148,
          60.95712883588251
        ]
      }
    },
    {
      "type": "Feature",
      "properties": {
        "norad_id": 33773,
        "name": "IRIDIUM 33 DEB",
        "group": "iridium-33-debris",
        "lat": 32.738076597440795,
        "lon": 57.54015882526189,
        "alt_km": 743.6527832443408,
        "timestamp": "2025-12-25T09:48:52.674288+00:00",
        "meta_object_name": "IRIDIUM 33 DEB",
        "meta_object_id": "1997-051L",
        "meta_epoch": "2025-12-25T03:00:26.345088",
        "meta_mean_motion": 14.43282119,
        "meta_eccentricity": 0.0013274,
        "meta_inclination": 86.3998,
        "meta_ra_of_asc_node": 55.3405,
        "meta_arg_of_pericenter": 110.8698,
        "meta_mean_anomaly": 249.3926,
        "meta_ephemeris_type": 0,
        "meta_classification_type": "U",
        "meta_norad_cat_id": 33773,
        "meta_element_set_no": 999,
        "meta_rev_at_epoch": 88526,
        "meta_bstar": 0.00029113,
        "meta_mean_motion_dot": 1.001e-05,
        "meta_mean_motion_ddot": 0,
        "tle_line1": "1 33773U 97051L   25359.12530492  .00001001  00000+0  29113-3 0  9995",
        "tle_line2": "2 33773  86.3998  55.3405 0013274 110.8698 249.3926 14.43282119885269"
      },
      "geometry": {
        "type": "Point",
        "coordinates": [
          57.54015882526189,
          32.738076597440795
        ]
      }
    },
    {
      "type": "Feature",
      "properties": {
        "norad_id": 33775,
        "name": "IRIDIUM 33 DEB",
        "group": "iridium-33-debris",
        "lat": 34.779384143056035,
        "lon": 46.67619709385876,
        "alt_km": 749.797424903817,
        "timestamp": "2025-12-25T09:48:52.674304+00:00",
        "meta_object_name": "IRIDIUM 33 DEB",
        "meta_object_id": "1997-051N",
        "meta_epoch": "2025-12-24T21:08:33.647136",
        "meta_mean_motion": 14.41493494,
        "meta_eccentricity": 0.0015301,
        "meta_inclination": 86.3624,
        "meta_ra_of_asc_node": 44.3695,
        "meta_arg_of_pericenter": 118.5758,
        "meta_mean_anomaly": 58.3115,
        "meta_ephemeris_type": 0,
        "meta_classification_type": "U",
        "meta_norad_cat_id": 33775,
        "meta_element_set_no": 999,
        "meta_rev_at_epoch": 88315,
        "meta_bstar": 0.00031635,
        "meta_mean_motion_dot": 1.048e-05,
        "meta_mean_motion_ddot": 0,
        "tle_line1": "1 33775U 97051N   25358.88094499  .00001048  00000+0  31635-3 0  9994",
        "tle_line2": "2 33775  86.3624  44.3695 0015301 118.5758  58.3115 14.41493494883153"
      },
      "geometry": {
        "type": "Point",
        "coordinates": [
          46.67619709385876,
          34.779384143056035
        ]
      }
    },
    {
      "type": "Feature",
      "properties": {
        "norad_id": 33776,
        "name": "IRIDIUM 33 DEB",
        "group": "iridium-33-debris",
        "lat": 62.39728075814267,
        "lon": -111.45426832112855,
        "alt_km": 748.8449484257562,
        "timestamp": "2025-12-25T09:48:52.674316+00:00",
        "meta_object_name": "IRIDIUM 33 DEB",
        "meta_object_id": "1997-051P",
        "meta_epoch": "2025-12-25T00:03:18.980064",
        "meta_mean_motion": 14.38255596,
        "meta_eccentricity": 0.0015705,
        "meta_inclination": 86.4031,
        "meta_ra_of_asc_node": 75.6262,
        "meta_arg_of_pericenter": 151.5247,
        "meta_mean_anomaly": 21.7754,
        "meta_ephemeris_type": 0,
        "meta_classification_type": "U",
        "meta_norad_cat_id": 33776,
        "meta_element_set_no": 999,
        "meta_rev_at_epoch": 88258,
        "meta_bstar": 0.00026549,
        "meta_mean_motion_dot": 8.27e-06,
        "meta_mean_motion_ddot": 0,
        "tle_line1": "1 33776U 97051P   25359.00230301  .00000827  00000+0  26549-3 0  9996",
        "tle_line2": "2 33776  86.4031  75.6262 0015705 151.5247  21.7754 14.38255596882586"
      },
      "geometry": {
        "type": "Point",
        "coordinates": [
          -111.45426832112855,
          62.39728075814267
        ]
      }
    },
    {
      "type": "Feature",
      "properties": {
        "norad_id": 33777,
        "name": "IRIDIUM 33 DEB",
        "group": "iridium-33-debris",
        "lat": -21.961771963265292,
        "lon": 28.22698751537207,
        "alt_km": 716.0636296193488,
        "timestamp": "2025-12-25T09:48:52.674328+00:00",
        "meta_object_name": "IRIDIUM 33 DEB",
        "meta_object_id": "1997-051Q",
        "meta_epoch": "2025-12-25T03:18:59.715360",
        "meta_mean_motion": 14.55696956,
        "meta_eccentricity": 0.0006317,
        "meta_inclination": 86.3773,
        "meta_ra_of_asc_node": 29.8087,
        "meta_arg_of_pericenter": 197.114,
        "meta_mean_anomaly": 162.9856,
        "meta_ephemeris_type": 0,
        "meta_classification_type": "U",
        "meta_norad_cat_id": 33777,
        "meta_element_set_no": 999,
        "meta_rev_at_epoch": 88714,
        "meta_bstar": 0.00084427,
        "meta_mean_motion_dot": 3.71e-05,
        "meta_mean_motion_ddot": 0,
        "tle_line1": "1 33777U 97051Q   25359.13819115  .00003710  00000+0  84427-3 0  9990",
        "tle_line2": "2 33777  86.3773  29.8087 0006317 197.1140 162.9856 14.55696956887148"
      },
      "geometry": {
        "type": "Point",
        "coordinates": [
          28.22698751537207,
          -21.961771963265292
        ]
      }
    },
    {
      "type": "Feature",
      "properties": {
        "norad_id": 33850,
        "name": "IRIDIUM 33 DEB",
        "group": "iridium-33-debris",
        "lat": 46.62875140265171,
        "lon": 28.615491307257063,
        "alt_km": 745.0839456104568,
        "timestamp": "2025-12-25T09:48:52.674340+00:00",
        "meta_object_name": "IRIDIUM 33 DEB",
        "meta_object_id": "1997-051T",
        "meta_epoch": "2025-12-25T03:13:46.982784",
        "meta_mean_motion": 14.42176919,
        "meta_eccentricity": 0.0013278,
        "meta_inclination": 86.3408,
        "meta_ra_of_asc_node": 24.8493,
        "meta_arg_of_pericenter": 124.2339,
        "meta_mean_anomaly": 299.1573,
        "meta_ephemeris_type": 0,
        "meta_classification_type": "U",
        "meta_norad_cat_id": 33850,
        "meta_element_set_no": 999,
        "meta_rev_at_epoch": 88331,
        "meta_bstar": 0.00041553,
        "meta_mean_motion_dot": 1.388e-05,
        "meta_mean_motion_ddot": 0,
        "tle_line1": "1 33850U 97051T   25359.13457156  .00001388  00000+0  41553-3 0  9997",
        "tle_line2": "2 33850  86.3408  24.8493 0013278 124.2339 299.1573 14.42176919883318"
      },
      "geometry": {
        "type": "Point",
        "coordinates": [
          28.615491307257063,
          46.62875140265171
        ]
      }
    },
    {
      "type": "Feature",
      "properties": {
        "norad_id": 33853,
        "name": "IRIDIUM 33 DEB",
        "group": "iridium-33-debris",
        "lat": -85.85726517807294,
        "lon": -90.76390643334403,
        "alt_km": 860.5293587531078,
        "timestamp": "2025-12-25T09:48:52.674351+00:00",
        "meta_object_name": "IRIDIUM 33 DEB",
        "meta_object_id": "1997-051W",
        "meta_epoch": "2025-12-24T22:19:16.041792",
        "meta_mean_motion": 13.99120379,
        "meta_eccentricity": 0.0207734,
        "meta_inclination": 86.0001,
        "meta_ra_of_asc_node": 344.4648,
        "meta_arg_of_pericenter": 198.227,
        "meta_mean_anomaly": 179.9108,
        "meta_ephemeris_type": 0,
        "meta_classification_type": "U",
        "meta_norad_cat_id": 33853,
        "meta_element_set_no": 999,
        "meta_rev_at_epoch": 85516,
        "meta_bstar": 0.0011909,
        "meta_mean_motion_dot": 2.092e-05,
        "meta_mean_motion_ddot": 0,
        "tle_line1": "1 33853U 97051W   25358.93004678  .00002092  00000+0  11909-2 0  9998",
        "tle_line2": "2 33853  86.0001 344.4648 0207734 198.2270 179.9108 13.99120379855168"
      },
      "geometry": {
        "type": "Point",
        "coordinates": [
          -90.76390643334403,
          -85.85726517807294
        ]
      }
    }
  ]
}